#aV2020  1 22  0  0  0.00000000     288 DD+AD WGS84 FIT  NGA
## 2089 259200.00000000   300.00000000 58870 0.0000000000000
+   32     1  2  3  4  5  6  7  8  9 10 11 12 13 14 15 16 17
+         18 19 20 21 22 23 24 25 26 27 28 29 30 31 32  0  0
+          0  0  0  0  0  0  0  0  0  0  0  0  0  0  0  0  0
+          0  0  0  0  0  0  0  0  0  0  0  0  0  0  0  0  0
+          0  0  0  0  0  0  0  0  0  0  0  0  0  0  0  0  0
++         2  2  2  2  2  2  2  2  2  2  2  2  2  2  2  2  2
++         2  2  2  2  2  2  2  2  2  2  2  2  2  2  2  0  0
++         0  0  0  0  0  0  0  0  0  0  0  0  0  0  0  0  0
++         0  0  0  0  0  0  0  0  0  0  0  0  0  0  0  0  0
++         0  0  0  0  0  0  0  0  0  0  0  0  0  0  0  0  0
%c cc cc ccc ccc cccc cccc cccc cccc ccccc ccccc ccccc ccccc
%c cc cc ccc ccc cccc cccc cccc cccc ccccc ccccc ccccc ccccc
%f  0.0000000  0.000000000  0.00000000000  0.000000000000000
%f  0.0000000  0.000000000  0.00000000000  0.000000000000000
%i    0    0    0    0      0      0      0      0         0
%i    0    0    0    0      0      0      0      0         0
/*      NGA, ST. LOUIS,MO.                                  
/*   EPHEMERIS COMPUTED FROM 2 DAYS OF DATA                 
/*   EPOCHA v5 SMOOTHER                                     
/*   G1762 IERS2010 SATAF SATAPC                            
*  2020  1 22  1 35  0.00000000
P  1  13592.173703 -15213.877153  16620.422026   -270.054117                    
V  1  -1501.612500  21602.107520  21062.516279     -0.121367                    
P  2 -13689.041075  -8863.258777 -20347.524902   -390.366991                    
V  2   2990.659138 -27141.682194   9422.356167     -0.071131                    
P  3  21981.014723 -13464.145808  -6256.672882    -77.331889                    
V  3   8303.084021   -479.500577  30571.094145     -0.079962                    
P  4  14128.051426  -7534.201573 -21189.400207    -37.762479                    
V  4  20225.502445  17775.877966   7141.666857     -0.054349                    
P  5 -23251.046664    -83.236548 -13147.231582     -6.434541                    
V  5  14139.849381  -8661.784538 -25018.660129     -0.005557                    
P  6  -7399.634994 -20467.210099 -15148.461551   -188.511090                    
V  6   4375.440585 -18880.200664  23320.893925     -0.100511                    
P  7   5429.388559 -25630.458411  -1988.956768   -197.320876                    
V  7   2978.509278   3407.435891 -31775.844074     -0.083217                    
P  8  20903.018673   1726.454587  16468.448926    -21.040218                    
V  8  15578.505969  13768.268801 -21023.940450     -0.013002                    
P  9   4351.403452 -15579.006649 -21123.184818   -137.922893                    
V  9  21683.070925  15628.150888  -7094.010519     -0.087448                    
P 10   3909.166765  14720.159498  21822.002041   -217.919527                    
V 10 -25638.687541  10036.351017  -2411.557395     -0.134771                    
P 11  13741.979263  -8917.262226  20438.842425   -383.360255                    
V 11   9072.898764  25721.821349   4699.539746      0.108499                    
P 12 -24272.744204  10112.578709  -3235.980588    159.768618                    
V 12  -4365.825557  -1010.603065  31946.075269     -0.041148                    
P 13 -21507.785479 -10682.944473  11307.994704    -18.330328                    
V 13  -8626.697959 -11875.402175 -27247.400074      0.026099                    
P 14  18690.402068  18955.332407   1789.532528    -37.323192                    
V 14  -3180.387681    694.080621  31512.509515      0.023368                    
P 15 -21068.352538    905.497908  16061.745681   -256.962025                    
V 15 -16409.894406 -13180.102092 -20012.721708      0.026292                    
P 16  23016.469384   2570.328803 -13605.893933   -116.105494                    
V 16 -15622.516945   6140.797990 -25210.066421     -0.040287                    
P 17 -11971.238602 -20893.527678  11697.266907    202.744477                    
V 17  11682.818284   8127.195899  27425.826307      0.065926                    
P 18  14951.256507  -7105.055451  20247.238782    114.921535                    
V 18  -1307.837286  26881.209789  10236.856360      0.023676                    
P 19 -17258.634986 -19835.591837   3433.182231   -209.259278                    
V 19   4889.024107   1723.737485  31832.517957      0.051672                    
P 20  -6883.754602  18647.667051  17426.713119    527.821320                    
V 20 -20715.351382   9006.353990 -17932.935391      0.000311                    
P 21  -1593.226818  26635.832740    697.919044    -52.278413                    
V 21  -2904.849650   -290.811537 -31388.727371      0.055223                    
P 22  24406.347905 -10059.564003   2529.674715   -782.683353                    
V 22   -947.375018   4773.844717  30906.116169     -0.011519                    
P 23  13301.737445  -8956.149134 -20870.908477   -141.547985                    
V 23  21551.260340  16814.931529   6035.111445      0.024885                    
P 24 -14159.469575  13462.314255  17638.930654     -7.901943                    
V 24   -299.503539 -23096.216872  17564.758376     -0.004979                    
P 25 -15390.291962  16515.171453 -13994.637901    -15.483966                    
V 25 -17032.442342   4502.063147  24701.190071      0.009104                    
P 26  16339.804831   8054.909809 -19426.930055    132.283165                    
V 26 -22006.437503  11031.853413 -13737.985501      0.079131                    
P 27  22889.003123  11549.821321   7440.677586   -188.220955                    
V 27   6320.538511   7350.770685 -30052.239069     -0.112568                    
P 28  -4026.463555 -14534.807811  22460.375152    743.919941                    
V 28  25890.238468  -7754.698371   -253.705059     -0.021876                    
P 29  -5451.817591  14408.695527 -21663.490389    -13.498103                    
V 29 -20624.223495 -17993.692864  -6804.750105     -0.095709                    
P 30  -1941.238104 -24928.032273   8690.036309   -134.810392                    
V 30   5283.969486 -10311.241298 -28688.415655     -0.088768                    
P 31   8949.121635  18206.245197 -16928.772627    -18.103845                    
V 31  -5710.155124  20958.360847  20014.719864     -0.024997                    
P 32  13702.012951  20177.799508  10743.744209    191.498940                    
V 32 -12188.223493  -6323.958544  27446.473636      0.104348                    
EOF
